CCSDS_OMM_VERS = 2.0
CREATION_DATE  = 
ORIGINATOR     = 

OBJECT_NAME    = HULIANWANG DIGUI-134
OBJECT_ID      = 2025-311G
CENTER_NAME    = EARTH
REF_FRAME      = TEME
TIME_SYSTEM    = UTC
MEAN_ELEMENT_THEORY = SGP/SGP4

EPOCH          = 2026-01-10T23:11:08.035008
MEAN_MOTION    = 13.90194478
ECCENTRICITY   = .00066911
INCLINATION    = 50.0054
RA_OF_ASC_NODE = 332.0435
ARG_OF_PERICENTER = 316.6148
MEAN_ANOMALY   = 43.4223

EPHEMERIS_TYPE = 0
CLASSIFICATION_TYPE = U
NORAD_CAT_ID   = 67242
ELEMENT_SET_NO = 999
REV_AT_EPOCH   = 223
BSTAR          = .11719843E-3
MEAN_MOTION_DOT = 0
MEAN_MOTION_DDOT = 0

CCSDS_OMM_VERS = 2.0
CREATION_DATE  = 
ORIGINATOR     = 

OBJECT_NAME    = HULIANWANG DIGUI-135
OBJECT_ID      = 2025-311H
CENTER_NAME    = EARTH
REF_FRAME      = TEME
TIME_SYSTEM    = UTC
MEAN_ELEMENT_THEORY = SGP/SGP4

EPOCH          = 2026-01-10T23:14:05.349408
MEAN_MOTION    = 13.90183563
ECCENTRICITY   = .00079145
INCLINATION    = 50.0041
RA_OF_ASC_NODE = 332.0511
ARG_OF_PERICENTER = 319.1218
MEAN_ANOMALY   = 40.9086

EPHEMERIS_TYPE = 0
CLASSIFICATION_TYPE = U
NORAD_CAT_ID   = 67243
ELEMENT_SET_NO = 999
REV_AT_EPOCH   = 223
BSTAR          = .11690059E-3
MEAN_MOTION_DOT = -.1E-7
MEAN_MOTION_DDOT = 0

CCSDS_OMM_VERS = 2.0
CREATION_DATE  = 
ORIGINATOR     = 

OBJECT_NAME    = HULIANWANG DIGUI-136
OBJECT_ID      = 2025-311J
CENTER_NAME    = EARTH
REF_FRAME      = TEME
TIME_SYSTEM    = UTC
MEAN_ELEMENT_THEORY = SGP/SGP4

EPOCH          = 2026-01-10T23:08:03.577056
MEAN_MOTION    = 13.90229425
ECCENTRICITY   = .00068362
INCLINATION    = 50.0113
RA_OF_ASC_NODE = 332.0453
ARG_OF_PERICENTER = 325.4720
MEAN_ANOMALY   = 34.5734

EPHEMERIS_TYPE = 0
CLASSIFICATION_TYPE = U
NORAD_CAT_ID   = 67244
ELEMENT_SET_NO = 999
REV_AT_EPOCH   = 223
BSTAR          = .11528694E-3
MEAN_MOTION_DOT = -.3E-7
MEAN_MOTION_DDOT = 0

CCSDS_OMM_VERS = 2.0
CREATION_DATE  = 
ORIGINATOR     = 

OBJECT_NAME    = CZ-8A R/B
OBJECT_ID      = 2025-311K
CENTER_NAME    = EARTH
REF_FRAME      = TEME
TIME_SYSTEM    = UTC
MEAN_ELEMENT_THEORY = SGP/SGP4

EPOCH          = 2026-01-10T22:32:11.212224
MEAN_MOTION    = 14.12609405
ECCENTRICITY   = .00889514
INCLINATION    = 50.0040
RA_OF_ASC_NODE = 329.9040
ARG_OF_PERICENTER = 137.3067
MEAN_ANOMALY   = 223.4797

EPHEMERIS_TYPE = 0
CLASSIFICATION_TYPE = U
NORAD_CAT_ID   = 67245
ELEMENT_SET_NO = 999
REV_AT_EPOCH   = 226
BSTAR          = -.8379862E-5
MEAN_MOTION_DOT = -.172E-5
MEAN_MOTION_DDOT = 0

CCSDS_OMM_VERS = 2.0
CREATION_DATE  = 
ORIGINATOR     = 

OBJECT_NAME    = FENGYUN 4C
OBJECT_ID      = 2025-312A
CENTER_NAME    = EARTH
REF_FRAME      = TEME
TIME_SYSTEM    = UTC
MEAN_ELEMENT_THEORY = SGP/SGP4

EPOCH          = 2026-01-11T01:09:23.933088
MEAN_MOTION    = 1.00277227
ECCENTRICITY   = .0002675
INCLINATION    = 0.0827
RA_OF_ASC_NODE = 246.0106
ARG_OF_PERICENTER = 48.0562
MEAN_ANOMALY   = 326.9256

EPHEMERIS_TYPE = 0
CLASSIFICATION_TYPE = U
NORAD_CAT_ID   = 67246
ELEMENT_SET_NO = 999
REV_AT_EPOCH   = 20
BSTAR          = 0
MEAN_MOTION_DOT = -.307E-5
MEAN_MOTION_DDOT = 0

CCSDS_OMM_VERS = 2.0
CREATION_DATE  = 
ORIGINATOR     = 

OBJECT_NAME    = CZ-3B R/B
OBJECT_ID      = 2025-312B
CENTER_NAME    = EARTH
REF_FRAME      = TEME
TIME_SYSTEM    = UTC
MEAN_ELEMENT_THEORY = SGP/SGP4

EPOCH          = 2026-01-10T20:08:46.787424
MEAN_MOTION    = 2.42574309
ECCENTRICITY   = .72165323
INCLINATION    = 28.4178
RA_OF_ASC_NODE = 328.3428
ARG_OF_PERICENTER = 188.7028
MEAN_ANOMALY   = 143.7075

EPHEMERIS_TYPE = 0
CLASSIFICATION_TYPE = U
NORAD_CAT_ID   = 67247
ELEMENT_SET_NO = 999
REV_AT_EPOCH   = 36
BSTAR          = .57591131E-3
MEAN_MOTION_DOT = .182137E-2
MEAN_MOTION_DDOT = .169912E-6

CCSDS_OMM_VERS = 2.0
CREATION_DATE  = 
ORIGINATOR     = 

OBJECT_NAME    = 2025-313A
OBJECT_ID      = 2025-313A
CENTER_NAME    = EARTH
REF_FRAME      = TEME
TIME_SYSTEM    = UTC
MEAN_ELEMENT_THEORY = SGP/SGP4

EPOCH          = 2026-01-10T21:51:39.421152
MEAN_MOTION    = 14.66782422
ECCENTRICITY   = .02804419
INCLINATION    = 97.5637
RA_OF_ASC_NODE = 87.4032
ARG_OF_PERICENTER = 121.8106
MEAN_ANOMALY   = 241.0738

EPHEMERIS_TYPE = 0
CLASSIFICATION_TYPE = U
NORAD_CAT_ID   = 67248
ELEMENT_SET_NO = 999
REV_AT_EPOCH   = 196
BSTAR          = .18949022E-3
MEAN_MOTION_DOT = .1857E-4
MEAN_MOTION_DDOT = 0

CCSDS_OMM_VERS = 2.0
CREATION_DATE  = 
ORIGINATOR     = 

OBJECT_NAME    = 2025-313B
OBJECT_ID      = 2025-313B
CENTER_NAME    = EARTH
REF_FRAME      = TEME
TIME_SYSTEM    = UTC
MEAN_ELEMENT_THEORY = SGP/SGP4

EPOCH          = 2026-01-10T22:08:07.219392
MEAN_MOTION    = 14.73163277
ECCENTRICITY   = .0297703
INCLINATION    = 97.5323
RA_OF_ASC_NODE = 87.4754
ARG_OF_PERICENTER = 126.1464
MEAN_ANOMALY   = 236.7688

EPHEMERIS_TYPE = 0
CLASSIFICATION_TYPE = U
NORAD_CAT_ID   = 67249
ELEMENT_SET_NO = 999
REV_AT_EPOCH   = 197
BSTAR          = .35390677E-3
MEAN_MOTION_DOT = .4608E-4
MEAN_MOTION_DDOT = 0

CCSDS_OMM_VERS = 2.0
CREATION_DATE  = 
ORIGINATOR     = 

OBJECT_NAME    = 2025-313C
OBJECT_ID      = 2025-313C
CENTER_NAME    = EARTH
REF_FRAME      = TEME
TIME_SYSTEM    = UTC
MEAN_ELEMENT_THEORY = SGP/SGP4

EPOCH          = 2026-01-10T22:58:32.740896
MEAN_MOTION    = 14.84553944
ECCENTRICITY   = .01633469
INCLINATION    = 97.6365
RA_OF_ASC_NODE = 87.9224
ARG_OF_PERICENTER = 136.2470
MEAN_ANOMALY   = 225.1826

EPHEMERIS_TYPE = 0
CLASSIFICATION_TYPE = U
NORAD_CAT_ID   = 67250
ELEMENT_SET_NO = 999
REV_AT_EPOCH   = 199
BSTAR          = .18755999E-2
MEAN_MOTION_DOT = .20087E-3
MEAN_MOTION_DDOT = 0

CCSDS_OMM_VERS = 2.0
CREATION_DATE  = 
ORIGINATOR     = 

OBJECT_NAME    = 2025-313D
OBJECT_ID      = 2025-313D
CENTER_NAME    = EARTH
REF_FRAME      = TEME
TIME_SYSTEM    = UTC
MEAN_ELEMENT_THEORY = SGP/SGP4

EPOCH          = 2026-01-10T20:25:09.690240
MEAN_MOTION    = 14.88719476
ECCENTRICITY   = .01522438
INCLINATION    = 97.5881
RA_OF_ASC_NODE = 87.8092
ARG_OF_PERICENTER = 129.2707
MEAN_ANOMALY   = 232.2131

EPHEMERIS_TYPE = 0
CLASSIFICATION_TYPE = U
NORAD_CAT_ID   = 67251
ELEMENT_SET_NO = 999
REV_AT_EPOCH   = 198
BSTAR          = .28369745E-3
MEAN_MOTION_DOT = .3231E-4
MEAN_MOTION_DDOT = 0

CCSDS_OMM_VERS = 2.0
CREATION_DATE  = 
ORIGINATOR     = 

OBJECT_NAME    = 2025-313E
OBJECT_ID      = 2025-313E
CENTER_NAME    = EARTH
REF_FRAME      = TEME
TIME_SYSTEM    = UTC
MEAN_ELEMENT_THEORY = SGP/SGP4

EPOCH          = 2026-01-10T21:30:54.504288
MEAN_MOTION    = 15.21581419
ECCENTRICITY   = .00107549
INCLINATION    = 97.4115
RA_OF_ASC_NODE = 88.1575
ARG_OF_PERICENTER = 170.7717
MEAN_ANOMALY   = 189.3718

EPHEMERIS_TYPE = 0
CLASSIFICATION_TYPE = U
NORAD_CAT_ID   = 67252
ELEMENT_SET_NO = 999
REV_AT_EPOCH   = 203
BSTAR          = .43685644E-3
MEAN_MOTION_DOT = .9804E-4
MEAN_MOTION_DDOT = 0

CCSDS_OMM_VERS = 2.0
CREATION_DATE  = 
ORIGINATOR     = 

OBJECT_NAME    = 2025-313F
OBJECT_ID      = 2025-313F
CENTER_NAME    = EARTH
REF_FRAME      = TEME
TIME_SYSTEM    = UTC
MEAN_ELEMENT_THEORY = SGP/SGP4

EPOCH          = 2026-01-10T22:04:59.384064
MEAN_MOTION    = 15.64713480
ECCENTRICITY   = .00101996
INCLINATION    = 97.1033
RA_OF_ASC_NODE = 88.2176
ARG_OF_PERICENTER = 190.1473
MEAN_ANOMALY   = 169.9582

EPHEMERIS_TYPE = 0
CLASSIFICATION_TYPE = U
NORAD_CAT_ID   = 67253
ELEMENT_SET_NO = 999
REV_AT_EPOCH   = 207
BSTAR          = .5585163E-3
MEAN_MOTION_DOT = .54429E-3
MEAN_MOTION_DDOT = 0

