HULIANWANG DIGUI-134    
1 67242U 25311G   26010.96606522  .00000000  00000+0  11720-3 0  9991
2 67242  50.0054 332.0435 0006691 316.6148  43.4223 13.90194478  2239
HULIANWANG DIGUI-135    
1 67243U 25311H   26010.96811747 -.00000001  00000+0  11690-3 0  9997
2 67243  50.0041 332.0511 0007914 319.1218  40.9086 13.90183563  2238
HULIANWANG DIGUI-136    
1 67244U 25311J   26010.96393029 -.00000003  00000+0  11529-3 0  9999
2 67244  50.0113 332.0453 0006836 325.4720  34.5734 13.90229425  2231
CZ-8A R/B               
1 67245U 25311K   26010.93901866 -.00000172  00000+0 -83799-5 0  9999
2 67245  50.0040 329.9040 0088951 137.3067 223.4797 14.12609405  2266
FENGYUN 4C              
1 67246U 25312A   26011.04819367 -.00000307  00000+0  00000+0 0  9995
2 67246   0.0827 246.0106 0002675  48.0562 326.9256  1.00277227   201
CZ-3B R/B               
1 67247U 25312B   26010.83943041  .00182137  16991-6  57591-3 0  9994
2 67247  28.4178 328.3428 7216532 188.7028 143.7075  2.42574309   360
2025-313A               
1 67248U 25313A   26010.91087293  .00001857  00000+0  18949-3 0  9993
2 67248  97.5637  87.4032 0280441 121.8106 241.0738 14.66782422  1961
2025-313B               
1 67249U 25313B   26010.92230578  .00004608  00000+0  35391-3 0  9998
2 67249  97.5323  87.4754 0297703 126.1464 236.7688 14.73163277  1974
2025-313C               
1 67250U 25313C   26010.95732339  .00020087  00000+0  18756-2 0  9999
2 67250  97.6365  87.9224 0163346 136.2470 225.1826 14.84553944  1998
2025-313D               
1 67251U 25313D   26010.85080660  .00003231  00000+0  28370-3 0  9998
2 67251  97.5881  87.8092 0152243 129.2707 232.2131 14.88719476  1987
2025-313E               
1 67252U 25313E   26010.89646417  .00009804  00000+0  43686-3 0  9990
2 67252  97.4115  88.1575 0010754 170.7717 189.3718 15.21581419  2031
2025-313F               
1 67253U 25313F   26010.92013176  .00054429  00000+0  55852-3 0  9996
2 67253  97.1033  88.2176 0010199 190.1473 169.9582 15.64713480  2073
